[
    {
        "Altitude(m)": 707219.7570217806,
        "Argument of Periapsis(deg)": 0.007973084830638947,
        "Eccentricity": 0.0,
        "Inclination(deg)": 45.0,
        "Latitude(deg)": -17.15989339663217,
        "Longitude(deg)": 87.35376205061789,
        "Mean Anomaly(deg)": -155.56314834676343,
        "RAAN(deg)": 349.99247364097926,
        "Satellite Name": "Constellation 1 1552",
        "Satellite Number": 1552,
        "Semi-Major Axis(m)": 7083131.272910544,
        "Time(s)": 133
    },
    {
        "Altitude(m)": 707232.2003006594,
        "Argument of Periapsis(deg)": 0.008033032836884352,
        "Eccentricity": 0.0,
        "Inclination(deg)": 45.0,
        "Latitude(deg)": -17.20094447414072,
        "Longitude(deg)": 87.39653932033855,
        "Mean Anomaly(deg)": -155.5024472065136,
        "RAAN(deg)": 349.99241705181373,
        "Satellite Name": "Constellation 1 1552",
        "Satellite Number": 1552,
        "Semi-Major Axis(m)": 7083131.272910544,
        "Time(s)": 134
    },
    {
        "Altitude(m)": 707244.6545274842,
        "Argument of Periapsis(deg)": 0.008092980843129758,
        "Eccentricity": 0.0,
        "Inclination(deg)": 45.0,
        "Latitude(deg)": -17.241984382998652,
        "Longitude(deg)": 87.43933714143935,
        "Mean Anomaly(deg)": -155.44174606626362,
        "RAAN(deg)": 349.99236046264815,
        "Satellite Name": "Constellation 1 1552",
        "Satellite Number": 1552,
        "Semi-Major Axis(m)": 7083131.272910544,
        "Time(s)": 135
    },
    {
        "Altitude(m)": 707257.1196632356,
        "Argument of Periapsis(deg)": 0.008152928849375162,
        "Eccentricity": 0.0,
        "Inclination(deg)": 45.0,
        "Latitude(deg)": -17.283013090570222,
        "Longitude(deg)": 87.48215556973172,
        "Mean Anomaly(deg)": -155.38104492601374,
        "RAAN(deg)": 349.9923038734825,
        "Satellite Name": "Constellation 1 1552",
        "Satellite Number": 1552,
        "Semi-Major Axis(m)": 7083131.272910544,
        "Time(s)": 136
    },
    {
        "Altitude(m)": 707269.595668832,
        "Argument of Periapsis(deg)": 0.008212876855620568,
        "Eccentricity": 0.0,
        "Inclination(deg)": 45.0,
        "Latitude(deg)": -17.324030564179843,
        "Longitude(deg)": 87.52499466105769,
        "Mean Anomaly(deg)": -155.3203437857639,
        "RAAN(deg)": 349.992247284317,
        "Satellite Name": "Constellation 1 1552",
        "Satellite Number": 1552,
        "Semi-Major Axis(m)": 7083131.272910544,
        "Time(s)": 137
    },
    {
        "Altitude(m)": 707282.0825051279,
        "Argument of Periapsis(deg)": 0.008272824861865974,
        "Eccentricity": 0.0,
        "Inclination(deg)": 45.0,
        "Latitude(deg)": -17.36503677111186,
        "Longitude(deg)": 87.56785447128918,
        "Mean Anomaly(deg)": -155.25964264551394,
        "RAAN(deg)": 349.9921906951514,
        "Satellite Name": "Constellation 1 1552",
        "Satellite Number": 1552,
        "Semi-Major Axis(m)": 7083131.272910544,
        "Time(s)": 138
    },
    {
        "Altitude(m)": 707294.5801329417,
        "Argument of Periapsis(deg)": 0.00833277286811138,
        "Eccentricity": 0.0,
        "Inclination(deg)": 45.0,
        "Latitude(deg)": -17.4060316786102,
        "Longitude(deg)": 87.6107350563284,
        "Mean Anomaly(deg)": -155.19894150526397,
        "RAAN(deg)": 349.9921341059859,
        "Satellite Name": "Constellation 1 1552",
        "Satellite Number": 1552,
        "Semi-Major Axis(m)": 7083131.272910544,
        "Time(s)": 139
    },
    {
        "Altitude(m)": 707307.0885130231,
        "Argument of Periapsis(deg)": 0.008392720874356788,
        "Eccentricity": 0.0,
        "Inclination(deg)": 45.0,
        "Latitude(deg)": -17.447015253878394,
        "Longitude(deg)": 87.65363647210751,
        "Mean Anomaly(deg)": -155.13824036501413,
        "RAAN(deg)": 349.9920775168203,
        "Satellite Name": "Constellation 1 1552",
        "Satellite Number": 1552,
        "Semi-Major Axis(m)": 7083131.272910544,
        "Time(s)": 140
    },
    {
        "Altitude(m)": 707319.607606058,
        "Argument of Periapsis(deg)": 0.008452668880602192,
        "Eccentricity": 0.0,
        "Inclination(deg)": 45.0,
        "Latitude(deg)": -17.48798746407972,
        "Longitude(deg)": 87.69655860649196,
        "Mean Anomaly(deg)": -155.07753922476428,
        "RAAN(deg)": 349.9920209276548,
        "Satellite Name": "Constellation 1 1552",
        "Satellite Number": 1552,
        "Semi-Major Axis(m)": 7083131.272910544,
        "Time(s)": 141
    },
    {
        "Altitude(m)": 707332.1373726869,
        "Argument of Periapsis(deg)": 0.008512616886847598,
        "Eccentricity": 0.0,
        "Inclination(deg)": 45.0,
        "Latitude(deg)": -17.528948276336614,
        "Longitude(deg)": 87.73950185166814,
        "Mean Anomaly(deg)": -155.01683808451438,
        "RAAN(deg)": 349.99196433848914,
        "Satellite Name": "Constellation 1 1552",
        "Satellite Number": 1552,
        "Semi-Major Axis(m)": 7083131.272910544,
        "Time(s)": 142
    },
    {
        "Altitude(m)": 707344.6777734924,
        "Argument of Periapsis(deg)": 0.008572564893093004,
        "Eccentricity": 0.0,
        "Inclination(deg)": 45.0,
        "Latitude(deg)": -17.569897657731012,
        "Longitude(deg)": 87.7824660955618,
        "Mean Anomaly(deg)": -154.95613694426444,
        "RAAN(deg)": 349.99190774932356,
        "Satellite Name": "Constellation 1 1552",
        "Satellite Number": 1552,
        "Semi-Major Axis(m)": 7083131.272910544,
        "Time(s)": 143
    },
    {
        "Altitude(m)": 707357.2287690002,
        "Argument of Periapsis(deg)": 0.008632512899338408,
        "Eccentricity": 0.0,
        "Inclination(deg)": 45.0,
        "Latitude(deg)": -17.6108355753038,
        "Longitude(deg)": 87.82545139422533,
        "Mean Anomaly(deg)": -154.89543580401457,
        "RAAN(deg)": 349.99185116015803,
        "Satellite Name": "Constellation 1 1552",
        "Satellite Number": 1552,
        "Semi-Major Axis(m)": 7083131.272910544,
        "Time(s)": 144
    },
    {
        "Altitude(m)": 707369.7903196778,
        "Argument of Periapsis(deg)": 0.008692460905583814,
        "Eccentricity": 0.0,
        "Inclination(deg)": 45.0,
        "Latitude(deg)": -17.651761996055285,
        "Longitude(deg)": 87.86845780374175,
        "Mean Anomaly(deg)": -154.83473466376464,
        "RAAN(deg)": 349.99179457099245,
        "Satellite Name": "Constellation 1 1552",
        "Satellite Number": 1552,
        "Semi-Major Axis(m)": 7083131.272910544,
        "Time(s)": 145
    },
    {
        "Altitude(m)": 707382.3623859426,
        "Argument of Periapsis(deg)": 0.00875240891182922,
        "Eccentricity": 0.0,
        "Inclination(deg)": 45.0,
        "Latitude(deg)": -17.692676886944238,
        "Longitude(deg)": 87.91148538022347,
        "Mean Anomaly(deg)": -154.7740335235148,
        "RAAN(deg)": 349.9917379818269,
        "Satellite Name": "Constellation 1 1552",
        "Satellite Number": 1552,
        "Semi-Major Axis(m)": 7083131.272910544,
        "Time(s)": 146
    },
    {
        "Altitude(m)": 707394.94492815,
        "Argument of Periapsis(deg)": 0.008812356918074627,
        "Eccentricity": 0.0,
        "Inclination(deg)": 45.0,
        "Latitude(deg)": -17.733580214888747,
        "Longitude(deg)": 87.9545341798133,
        "Mean Anomaly(deg)": -154.71333238326488,
        "RAAN(deg)": 349.9916813926613,
        "Satellite Name": "Constellation 1 1552",
        "Satellite Number": 1552,
        "Semi-Major Axis(m)": 7083131.272910544,
        "Time(s)": 147
    },
    {
        "Altitude(m)": 707407.5379066099,
        "Argument of Periapsis(deg)": 0.008872304924320031,
        "Eccentricity": 0.0,
        "Inclination(deg)": 45.0,
        "Latitude(deg)": -17.77447194676538,
        "Longitude(deg)": 87.99760409058722,
        "Mean Anomaly(deg)": -154.65263124301492,
        "RAAN(deg)": 349.9916248034957,
        "Satellite Name": "Constellation 1 1552",
        "Satellite Number": 1552,
        "Semi-Major Axis(m)": 7083131.272910544,
        "Time(s)": 148
    },
    {
        "Altitude(m)": 707420.1412815662,
        "Argument of Periapsis(deg)": 0.008932252930565437,
        "Eccentricity": 0.0,
        "Inclination(deg)": 45.0,
        "Latitude(deg)": -17.81535204940923,
        "Longitude(deg)": 88.04069550494157,
        "Mean Anomaly(deg)": -154.59193010276508,
        "RAAN(deg)": 349.9915682143302,
        "Satellite Name": "Constellation 1 1552",
        "Satellite Number": 1552,
        "Semi-Major Axis(m)": 7083131.272910544,
        "Time(s)": 149
    },
    {
        "Altitude(m)": 707432.7550132156,
        "Argument of Periapsis(deg)": 0.008992200936810843,
        "Eccentricity": 0.0,
        "Inclination(deg)": 45.0,
        "Latitude(deg)": -17.856220489614156,
        "Longitude(deg)": 88.08380831101233,
        "Mean Anomaly(deg)": -154.53122896251514,
        "RAAN(deg)": 349.9915116251646,
        "Satellite Name": "Constellation 1 1552",
        "Satellite Number": 1552,
        "Semi-Major Axis(m)": 7083131.272910544,
        "Time(s)": 150
    },
    {
        "Altitude(m)": 707445.3790617005,
        "Argument of Periapsis(deg)": 0.009052148943056249,
        "Eccentricity": 0.0,
        "Inclination(deg)": 45.0,
        "Latitude(deg)": -17.897077234132162,
        "Longitude(deg)": 88.12694256506202,
        "Mean Anomaly(deg)": -154.47052782226527,
        "RAAN(deg)": 349.991455035999,
        "Satellite Name": "Constellation 1 1552",
        "Satellite Number": 1552,
        "Semi-Major Axis(m)": 7083131.272910544,
        "Time(s)": 151
    }
]